NORAD_CAT_ID,OBJECT_NAME,OBJECT_TYPE,EPOCH,MEAN_MOTION,ECCENTRICITY,INCLINATION,RA_OF_ASC_NODE,ARG_OF_PERICENTER,MEAN_ANOMALY,BSTAR,MEAN_MOTION_DOT,MEAN_MOTION_DDOT,TLE_LINE0,TLE_LINE1,TLE_LINE2,SEMIMAJOR_AXIS,PERIOD,APOGEE,PERIGEE,DECAYED
51956.0,STARLINK-3700,PAYLOAD,2022-05-21 22:00:00,15.33783779,0.0001554,53.2172,140.6118,49.7267,100.0807,-0.023537,-0.00719866,0.0,0 STARLINK-3700,1 51956U 22025A   22141.91667824 -.00719866  00000-0 -23537-1 0  9990,2 51956  53.2172 140.6118 0001554  49.7267 100.0807 15.33783779  1302,6842.672,93.885,465.601,463.474,0.0
51956.0,STARLINK-3700,PAYLOAD,2022-05-22 14:00:01,15.327640099999998,0.0001509,53.2171,137.5009,56.8271,174.8794,-0.024307,-0.00719733,0.0,0 STARLINK-3700,1 51956U 22025A   22142.58334491 -.00719733  00000-0 -24307-1 0  9994,2 51956  53.2171 137.5009 0001509  56.8271 174.8794 15.32764010  1309,6845.706999999999,93.948,468.605,466.539,0.0
51956.0,STARLINK-3700,PAYLOAD,2022-05-22 22:00:01,15.32252267,0.0001593,53.2173,135.945,48.7556,223.047,-0.024596,-0.00716856,0.0,0 STARLINK-3700,1 51956U 22025A   22142.91668981 -.00716856  00000-0 -24596-1 0  9998,2 51956  53.2173 135.9450 0001593  48.7556 223.0470 15.32252267 12915,6847.231,93.979,470.187,468.005,0.0
51956.0,STARLINK-3700,PAYLOAD,2022-05-23 14:00:01,15.31234161,0.0001313,53.2172,132.8417,56.7846,293.1758,-0.025507,-0.00719708,0.0,0 STARLINK-3700,1 51956U 22025A   22143.58334491 -.00719708  00000-0 -25507-1 0  9990,2 51956  53.2172 132.8417 0001313  56.7846 293.1758 15.31234161  1304,6850.266,94.042,473.03,471.232,0.0
51956.0,STARLINK-3700,PAYLOAD,2022-05-23 22:00:01,15.30721303,0.0001452,53.2173,131.2896,47.3465,340.8718,-0.025728,-0.00714806,0.0,0 STARLINK-3700,1 51956U 22025A   22143.91668981 -.00714806  00000-0 -25728-1 0  9990,2 51956  53.2173 131.2896 0001452  47.3465 340.8718 15.30721303 13066,6851.795999999999,94.073,474.656,472.666,0.0
51956.0,STARLINK-3700,PAYLOAD,2022-05-24 13:33:11,15.30423822,0.0001946,53.2118,128.2968,39.2164,320.8978,-0.01294,-0.00367877,0.0,0 STARLINK-3700,1 51956U 22025A   22144.56471251 -.00367877  00000-0 -12940-1 0  9998,2 51956  53.2118 128.2968 0001946  39.2164 320.8978 15.30423822 12076,6852.684,94.092,475.882,473.215,0.0
51956.0,STARLINK-3700,PAYLOAD,2022-05-24 22:00:00,15.29193241,0.0001626999999999,53.2174,126.645,47.1463,91.9079,-0.027079,-0.00717251,0.0,0 STARLINK-3700,1 51956U 22025A   22144.91667824 -.00717251  00000-0 -27079-1 0  9994,2 51956  53.2174 126.6450 0001627  47.1463  91.9079 15.29193241 13225,6856.36,94.167,479.34,477.109,0.0
51956.0,STARLINK-3700,PAYLOAD,2022-05-25 14:00:01,15.28173508,0.0001575999999999,53.2172,123.5555,53.4171,156.5062,-0.027973,-0.00726259,0.0,0 STARLINK-3700,1 51956U 22025A   22145.58334491 -.00726259  00000-0 -27973-1 0  9990,2 51956  53.2172 123.5555 0001576  53.4171 156.5062 15.28173508  1303,6859.409000000002,94.23,482.356,480.193,0.0
51956.0,STARLINK-3700,PAYLOAD,2022-05-25 22:00:00,15.2766265,0.0001597,53.2173,122.0108,53.5509,190.8888,-0.028316,-0.007239,0.0,0 STARLINK-3700,1 51956U 22025A   22145.91667824 -.00723900  00000-0 -28316-1 0  9998,2 51956  53.2173 122.0108 0001597  53.5509 190.8888 15.27662650  1308,6860.939,94.262,483.899,481.708,0.0
51956.0,STARLINK-3700,PAYLOAD,2022-05-26 04:47:09,15.28073856,0.0001075,53.2122,120.723,130.4752,229.6343,-0.012875,-0.00341578,0.0,0 STARLINK-3700,1 51956U 22025A   22146.19941466 -.00341578  00000-0 -12875-1 0  9996,2 51956  53.2122 120.7230 0001075 130.4752 229.6343 15.28073856 13416,6859.708000000001,94.236,482.31,480.835,0.0
51956.0,STARLINK-3700,PAYLOAD,2022-05-26 06:00:00,15.27152504,0.0001724,53.2173,120.4706,44.9143,233.4274,-0.02878,-0.00724355,0.0,0 STARLINK-3700,1 51956U 22025A   22146.25001157 -.00724355  00000-0 -28780-1 0  9997,2 51956  53.2173 120.4706 0001724  44.9143 233.4274 15.27152504 13425,6862.465999999999,94.293,485.515,483.148,0.0
51956.0,STARLINK-3700,PAYLOAD,2022-05-26 12:38:24,15.27599391,0.0001171,53.2116,119.2084,40.1754,319.9332,-0.0134389999999999,-0.00350955,0.0,0 STARLINK-3700,1 51956U 22025A   22146.52666751 -.00350955  00000-0 -13439-1 0  9990,2 51956  53.2116 119.2084 0001171  40.1754 319.9332 15.27599391 13467,6861.128000000002,94.266,483.796,482.19,0.0
51956.0,STARLINK-3700,PAYLOAD,2022-05-26 14:12:39,15.27482028,0.0003028,53.2119,118.9054,221.406,138.6711,-0.0138139999999999,-0.00359157,0.0,0 STARLINK-3700,1 51956U 22025A   22146.59212767 -.00359157  00000-0 -13814-1 0  9991,2 51956  53.2119 118.9054 0003028 221.4060 138.6711 15.27482028 12385,6861.479,94.273,485.422,481.267,0.0
51956.0,STARLINK-3700,PAYLOAD,2022-05-26 22:00:00,15.2613144,0.0001525,53.2174,117.3879,46.764,297.5464,-0.029569,-0.00721603,0.0,0 STARLINK-3700,1 51956U 22025A   22146.91667824 -.00721603  00000-0 -29569-1 0  9998,2 51956  53.2174 117.3879 0001525  46.7640 297.5464 15.26131440 13521,6865.526999999999,94.356,488.439,486.345,0.0
51956.0,STARLINK-3700,PAYLOAD,2022-05-27 01:12:44,15.26798118,0.0001136,53.2117,116.7908,60.3732,299.7381,-0.013543,-0.00345394,0.0,0 STARLINK-3700,1 51956U 22025A   22147.05051429 -.00345394  00000-0 -13543-1 0  9996,2 51956  53.2117 116.7908 0001136  60.3732 299.7381 15.26798118 13541,6863.528,94.315,486.173,484.614,0.0
51956.0,STARLINK-3700,PAYLOAD,2022-05-27 13:47:30,15.25954297,0.0003791,53.2128,114.3724,22.6456,337.471,-0.014574,-0.00361643,0.0,0 STARLINK-3700,1 51956U 22025A   22147.57465421 -.00361643  00000-0 -14574-1 0  9994,2 51956  53.2128 114.3724 0003791  22.6456 337.4710 15.25954297 12531,6866.058000000001,94.367,490.526,485.32,0.0
51956.0,STARLINK-3700,PAYLOAD,2022-05-27 16:00:00,15.24928318,0.0001804,53.2166,113.9298,42.1999,103.4203,-0.027148,-0.0063713,0.0,0 STARLINK-3700,1 51956U 22025A   22147.66667824 -.00637130  00000-0 -27148-1 0  9993,2 51956  53.2166 113.9298 0001804  42.1999 103.4203 15.24928318 13641,6869.138000000001,94.431,492.242,489.763,0.0
51956.0,STARLINK-3700,PAYLOAD,2022-05-27 21:39:20,15.25557614,0.0001622,53.2133,112.8625,45.9561,314.1572,-0.014013,-0.00344267,0.0,0 STARLINK-3700,1 51956U 22025A   22147.90232007 -.00344267  00000-0 -14013-1 0  9994,2 51956  53.2133 112.8625 0001622  45.9561 314.1572 15.25557614 12581,6867.249,94.392,490.227,488.0,0.0
51956.0,STARLINK-3700,PAYLOAD,2022-05-28 06:00:02,15.24093774,0.0001885,53.2174,111.2424,37.8008,71.1528,-0.031661,-0.00726302,0.0,0 STARLINK-3700,1 51956U 22025A   22148.25002315 -.00726302  00000-0 -31661-1 0  9992,2 51956  53.2174 111.2424 0001885  37.8008  71.1528 15.24093774 13722,6871.645,94.482,494.805,492.215,0.0
51956.0,STARLINK-3700,PAYLOAD,2022-05-28 13:23:48,15.24548452,0.0002608,53.2137,109.8471,18.5127,341.5966,-0.014716,-0.00350472,0.0,0 STARLINK-3700,1 51956U 22025A   22148.55820058 -.00350472  00000-0 -14716-1 0  9990,2 51956  53.2137 109.8471 0002608  18.5127 341.5966 15.24548452 12680,6870.279,94.454,493.935,490.352,0.0
51956.0,STARLINK-3700,PAYLOAD,2022-05-28 21:16:04,15.24227989,0.0002821,53.2141,108.3363,89.7381,270.3941,-0.012493,-0.00296869,0.0,0 STARLINK-3700,1 51956U 22025A   22148.88616407 -.00296869  00000-0 -12493-1 0  9996,2 51956  53.2141 108.3363 0002821  89.7381 270.3941 15.24227989 13826,6871.2419999999975,94.474,495.045,491.168,0.0
51956.0,STARLINK-3700,PAYLOAD,2022-05-29 06:00:02,15.22561935,0.0001907,53.2173,106.6443,41.7916,154.1642,-0.032961,-0.00722596,0.0,0 STARLINK-3700,1 51956U 22025A   22149.25002315 -.00722596  00000-0 -32961-1 0  9998,2 51956  53.2173 106.6443 0001907  41.7916 154.1642 15.22561935 13880,6876.253000000002,94.577,499.43,496.807,0.0
51956.0,STARLINK-3700,PAYLOAD,2022-05-29 14:00:01,15.22054219,0.0001685,53.2173,105.1126,48.2539,175.4135,-0.033649,-0.00726352,0.0,0 STARLINK-3700,1 51956U 22025A   22149.58334491 -.00726352  00000-0 -33649-1 0  9995,2 51956  53.2173 105.1126 0001685  48.2539 175.4135 15.22054219  1307,6877.781999999997,94.609,500.806,498.48800000000006,0.0
51956.0,STARLINK-3700,PAYLOAD,2022-05-29 20:54:06,15.22776793,0.0003074,53.2156,103.8156,92.846,267.289,-0.013301,-0.00302462,0.0,0 STARLINK-3700,1 51956U 22025A   22149.87090475 -.00302462  00000-0 -13301-1 0  9993,2 51956  53.2156 103.8156 0003074  92.8460 267.2890 15.22776793 12889,6875.606,94.564,499.585,495.358,0.0
51956.0,STARLINK-3700,PAYLOAD,2022-05-30 06:00:00,15.21031908,0.0001818,53.2174,102.0571,41.9277,235.4512,-0.034459,-0.00722035,0.0,0 STARLINK-3700,1 51956U 22025A   22150.25001157 -.00722035  00000-0 -34459-1 0  9995,2 51956  53.2174 102.0571 0001818  41.9277 235.4512 15.21031908 14034,6880.864000000001,94.673,503.98,501.478,0.0
51956.0,STARLINK-3700,PAYLOAD,2022-05-30 12:40:19,15.21692863,0.0001506,53.2151,100.8041,272.4723,87.6103,-0.014043,-0.00308911,0.0,0 STARLINK-3700,1 51956U 22025A   22150.52799995 -.00308911  00000-0 -14043-1 0  9999,2 51956  53.2151 100.8041 0001506 272.4723  87.6103 15.21692863 14078,6878.871,94.631,501.772,499.7,0.0
51956.0,STARLINK-3700,PAYLOAD,2022-05-30 14:14:59,15.21583055,0.0002634,53.2147,100.5035,17.7348,342.3741,-0.014027,-0.0030766,0.0,0 STARLINK-3700,1 51956U 22025A   22150.59374477 -.00307660  00000-0 -14027-1 0  9992,2 51956  53.2147 100.5035 0002634  17.7348 342.3741 15.21583055 12999,6879.2019999999975,94.638,502.879,499.255,0.0
51956.0,STARLINK-3700,PAYLOAD,2022-05-30 22:00:00,15.20013255,0.0001651,53.2175,99.0031,43.293,285.3469,-0.035599,-0.00723794,0.0,0 STARLINK-3700,1 51956U 22025A   22150.91667824 -.00723794  00000-0 -35599-1 0  9996,2 51956  53.2175  99.0031 0001651  43.2930 285.3469 15.20013255 14137,6883.938,94.736,506.939,504.666,0.0
51956.0,STARLINK-3700,PAYLOAD,2022-05-31 06:00:02,15.19502256,0.0001827,53.2174,97.4805,36.424,316.9897,-0.036086,-0.00722902,0.0,0 STARLINK-3700,1 51956U 22025A   22151.25002315 -.00722902  00000-0 -36086-1 0  9994,2 51956  53.2174  97.4805 0001827  36.4240 316.9897 15.19502256  1303,6885.481,94.768,508.604,506.088,0.0
